[{"OBJECT_NAME":"COSMOS 2482 (RODNIK-S 4)","OBJECT_ID":"2013-001A","EPOCH":"2026-03-09T22:57:00.602208","MEAN_MOTION":12.42992225,"ECCENTRICITY":0.00268657,"INCLINATION":82.4946,"RA_OF_ASC_NODE":282.1079,"ARG_OF_PERICENTER":240.8337,"MEAN_ANOMALY":119.0054,"EPHEMERIS_TYPE":0,"CLASSIFICATION_TYPE":"U","NORAD_CAT_ID":39057,"ELEMENT_SET_NO":999,"REV_AT_EPOCH":59638,"BSTAR":-0.0013340309,"MEAN_MOTION_DOT":-1.75e-6,"MEAN_MOTION_DDOT":0},{"OBJECT_NAME":"COSMOS 1018","OBJECT_ID":"1978-056F","EPOCH":"2026-03-09T13:02:26.879424","MEAN_MOTION":12.49908331,"ECCENTRICITY":0.00298867,"INCLINATION":74.0238,"RA_OF_ASC_NODE":101.633,"ARG_OF_PERICENTER":214.588,"MEAN_ANOMALY":261.2638,"EPHEMERIS_TYPE":0,"CLASSIFICATION_TYPE":"U","NORAD_CAT_ID":10935,"ELEMENT_SET_NO":999,"REV_AT_EPOCH":17887,"BSTAR":-5.73221e-7,"MEAN_MOTION_DOT":-1.6e-7,"MEAN_MOTION_DDOT":0}]
